[{"OBJECT_NAME":"JILIN-1 GAOFEN 03D43","OBJECT_ID":"2022-098E","EPOCH":"2026-03-09T22:44:15.785952","MEAN_MOTION":15.57011563,"ECCENTRICITY":0.00021659,"INCLINATION":97.5443,"RA_OF_ASC_NODE":192.8874,"ARG_OF_PERICENTER":13.4231,"MEAN_ANOMALY":346.7081,"EPHEMERIS_TYPE":0,"CLASSIFICATION_TYPE":"U","NORAD_CAT_ID":53448,"ELEMENT_SET_NO":999,"REV_AT_EPOCH":19919,"BSTAR":0.00090276646,"MEAN_MOTION_DOT":0.00065504,"MEAN_MOTION_DDOT":0},{"OBJECT_NAME":"STARLINK-36595","OBJECT_ID":"2026-020Y","EPOCH":"2026-03-09T22:00:01.999584","MEAN_MOTION":15.68201858,"ECCENTRICITY":0.00012094,"INCLINATION":42.999,"RA_OF_ASC_NODE":140.3235,"ARG_OF_PERICENTER":283.6105,"MEAN_ANOMALY":204.2626,"EPHEMERIS_TYPE":0,"CLASSIFICATION_TYPE":"U","NORAD_CAT_ID":67639,"ELEMENT_SET_NO":999,"REV_AT_EPOCH":599,"BSTAR":-0.019427213,"MEAN_MOTION_DOT":-0.01971633,"MEAN_MOTION_DDOT":0}]
